{
  "type": "FeatureCollection",
  "features": [
    {
      "type": "Feature",
      "properties": {
        "norad_id": 66535,
        "name": "STARLINK-35514",
        "group": "last-30-days",
        "lat": -0.13066018797347892,
        "lon": 64.52032088400193,
        "alt_km": 414.8132716700138,
        "timestamp": "2025-12-10T21:43:20.862059+00:00",
        "meta_object_name": "STARLINK-35514",
        "meta_object_id": "2025-265V",
        "meta_epoch": "2025-12-10T14:00:03.000384",
        "meta_mean_motion": 15.50624551,
        "meta_eccentricity": 0.00014748,
        "meta_inclination": 43.0001,
        "meta_ra_of_asc_node": 66.5429,
        "meta_arg_of_pericenter": 273.9372,
        "meta_mean_anomaly": 87.8314,
        "meta_ephemeris_type": 0,
        "meta_classification_type": "U",
        "meta_norad_cat_id": 66535,
        "meta_element_set_no": 999,
        "meta_rev_at_epoch": 464,
        "meta_bstar": -0.0020857685,
        "meta_mean_motion_dot": -0.00121028,
        "meta_mean_motion_ddot": 0,
        "tle_line1": "1 66535U 25265V   25344.58336806 -.00121028  00000+0 -20858-2 0  9992",
        "tle_line2": "2 66535  43.0001  66.5429 0001474 273.9372  87.8314 15.50624551  4645"
      },
      "geometry": {
        "type": "Point",
        "coordinates": [
          64.52032088400193,
          -0.13066018797347892
        ]
      }
    },
    {
      "type": "Feature",
      "properties": {
        "norad_id": 66536,
        "name": "STARLINK-35640",
        "group": "last-30-days",
        "lat": 1.1805116445535537,
        "lon": 65.92425743355537,
        "alt_km": 414.75017395251507,
        "timestamp": "2025-12-10T21:43:20.862069+00:00",
        "meta_object_name": "STARLINK-35640",
        "meta_object_id": "2025-265W",
        "meta_epoch": "2025-12-10T14:00:03.000384",
        "meta_mean_motion": 15.50638765,
        "meta_eccentricity": 0.00016194,
        "meta_inclination": 43.0001,
        "meta_ra_of_asc_node": 66.5395,
        "meta_arg_of_pericenter": 270.9729,
        "meta_mean_anomaly": 92.7138,
        "meta_ephemeris_type": 0,
        "meta_classification_type": "U",
        "meta_norad_cat_id": 66536,
        "meta_element_set_no": 999,
        "meta_rev_at_epoch": 462,
        "meta_bstar": -0.0026893688,
        "meta_mean_motion_dot": -0.00155358,
        "meta_mean_motion_ddot": 0,
        "tle_line1": "1 66536U 25265W   25344.58336806 -.00155358  00000+0 -26894-2 0  9992",
        "tle_line2": "2 66536  43.0001  66.5395 0001619 270.9729  92.7138 15.50638765  4621"
      },
      "geometry": {
        "type": "Point",
        "coordinates": [
          65.92425743355537,
          1.1805116445535537
        ]
      }
    },
    {
      "type": "Feature",
      "properties": {
        "norad_id": 66537,
        "name": "STARLINK-35582",
        "group": "last-30-days",
        "lat": 2.484904516909666,
        "lon": 67.32119044829483,
        "alt_km": 414.6756914918278,
        "timestamp": "2025-12-10T21:43:20.862079+00:00",
        "meta_object_name": "STARLINK-35582",
        "meta_object_id": "2025-265X",
        "meta_epoch": "2025-12-10T14:00:03.000384",
        "meta_mean_motion": 15.50635726,
        "meta_eccentricity": 0.00015288,
        "meta_inclination": 43.0003,
        "meta_ra_of_asc_node": 66.5343,
        "meta_arg_of_pericenter": 267.3333,
        "meta_mean_anomaly": 98.2698,
        "meta_ephemeris_type": 0,
        "meta_classification_type": "U",
        "meta_norad_cat_id": 66537,
        "meta_element_set_no": 999,
        "meta_rev_at_epoch": 464,
        "meta_bstar": -0.0025802605,
        "meta_mean_motion_dot": -0.00149168,
        "meta_mean_motion_ddot": 0,
        "tle_line1": "1 66537U 25265X   25344.58336806 -.00149168  00000+0 -25803-2 0  9994",
        "tle_line2": "2 66537  43.0003  66.5343 0001528 267.3333  98.2698 15.50635726  4645"
      },
      "geometry": {
        "type": "Point",
        "coordinates": [
          67.32119044829483,
          2.484904516909666
        ]
      }
    },
    {
      "type": "Feature",
      "properties": {
        "norad_id": 66538,
        "name": "STARLINK-35577",
        "group": "last-30-days",
        "lat": 3.791186324389708,
        "lon": 68.72456510628298,
        "alt_km": 414.48669186746247,
        "timestamp": "2025-12-10T21:43:20.862089+00:00",
        "meta_object_name": "STARLINK-35577",
        "meta_object_id": "2025-265Y",
        "meta_epoch": "2025-12-10T14:00:03.000384",
        "meta_mean_motion": 15.50629028,
        "meta_eccentricity": 0.0001613,
        "meta_inclination": 43.0002,
        "meta_ra_of_asc_node": 66.5291,
        "meta_arg_of_pericenter": 269.8872,
        "meta_mean_anomaly": 97.6374,
        "meta_ephemeris_type": 0,
        "meta_classification_type": "U",
        "meta_norad_cat_id": 66538,
        "meta_element_set_no": 999,
        "meta_rev_at_epoch": 464,
        "meta_bstar": -0.0023830777,
        "meta_mean_motion_dot": -0.00137959,
        "meta_mean_motion_ddot": 0,
        "tle_line1": "1 66538U 25265Y   25344.58336806 -.00137959  00000+0 -23831-2 0  9999",
        "tle_line2": "2 66538  43.0002  66.5291 0001613 269.8872  97.6374 15.50629028  4649"
      },
      "geometry": {
        "type": "Point",
        "coordinates": [
          68.72456510628298,
          3.791186324389708
        ]
      }
    },
    {
      "type": "Feature",
      "properties": {
        "norad_id": 66539,
        "name": "STARLINK-35697",
        "group": "last-30-days",
        "lat": 5.094707450711661,
        "lon": 70.13061529909233,
        "alt_km": 414.2756738218168,
        "timestamp": "2025-12-10T21:43:20.862099+00:00",
        "meta_object_name": "STARLINK-35697",
        "meta_object_id": "2025-265Z",
        "meta_epoch": "2025-12-10T14:00:03.000384",
        "meta_mean_motion": 15.50631145,
        "meta_eccentricity": 0.00015844,
        "meta_inclination": 42.9999,
        "meta_ra_of_asc_node": 66.5228,
        "meta_arg_of_pericenter": 272.816,
        "meta_mean_anomaly": 96.6241,
        "meta_ephemeris_type": 0,
        "meta_classification_type": "U",
        "meta_norad_cat_id": 66539,
        "meta_element_set_no": 999,
        "meta_rev_at_epoch": 464,
        "meta_bstar": -0.0023549901,
        "meta_mean_motion_dot": -0.00136374,
        "meta_mean_motion_ddot": 0,
        "tle_line1": "1 66539U 25265Z   25344.58336806 -.00136374  00000+0 -23550-2 0  9998",
        "tle_line2": "2 66539  42.9999  66.5228 0001584 272.8160  96.6241 15.50631145  4649"
      },
      "geometry": {
        "type": "Point",
        "coordinates": [
          70.13061529909233,
          5.094707450711661
        ]
      }
    },
    {
      "type": "Feature",
      "properties": {
        "norad_id": 66540,
        "name": "STARLINK-35818",
        "group": "last-30-days",
        "lat": 6.39078151792942,
        "lon": 71.53969403139055,
        "alt_km": 414.0310646531425,
        "timestamp": "2025-12-10T21:43:20.862111+00:00",
        "meta_object_name": "STARLINK-35818",
        "meta_object_id": "2025-265AA",
        "meta_epoch": "2025-12-10T14:00:03.000384",
        "meta_mean_motion": 15.50622799,
        "meta_eccentricity": 0.00015724,
        "meta_inclination": 43,
        "meta_ra_of_asc_node": 66.5186,
        "meta_arg_of_pericenter": 277.6071,
        "meta_mean_anomaly": 93.7484,
        "meta_ephemeris_type": 0,
        "meta_classification_type": "U",
        "meta_norad_cat_id": 66540,
        "meta_element_set_no": 999,
        "meta_rev_at_epoch": 464,
        "meta_bstar": -0.0020745236,
        "meta_mean_motion_dot": -0.0012038,
        "meta_mean_motion_ddot": 0,
        "tle_line1": "1 66540U 25265AA  25344.58336806 -.00120380  00000+0 -20745-2 0  9993",
        "tle_line2": "2 66540  43.0000  66.5186 0001572 277.6071  93.7484 15.50622799  4642"
      },
      "geometry": {
        "type": "Point",
        "coordinates": [
          71.53969403139055,
          6.39078151792942
        ]
      }
    },
    {
      "type": "Feature",
      "properties": {
        "norad_id": 66541,
        "name": "STARLINK-35796",
        "group": "last-30-days",
        "lat": 7.688836105525331,
        "lon": 72.96178428729908,
        "alt_km": 413.95116176401916,
        "timestamp": "2025-12-10T21:43:20.862121+00:00",
        "meta_object_name": "STARLINK-35796",
        "meta_object_id": "2025-265AB",
        "meta_epoch": "2025-12-10T14:00:03.000384",
        "meta_mean_motion": 15.50627441,
        "meta_eccentricity": 0.00015939,
        "meta_inclination": 43.0005,
        "meta_ra_of_asc_node": 66.5139,
        "meta_arg_of_pericenter": 274.5667,
        "meta_mean_anomaly": 98.7084,
        "meta_ephemeris_type": 0,
        "meta_classification_type": "U",
        "meta_norad_cat_id": 66541,
        "meta_element_set_no": 999,
        "meta_rev_at_epoch": 464,
        "meta_bstar": -0.002298919,
        "meta_mean_motion_dot": -0.00133171,
        "meta_mean_motion_ddot": 0,
        "tle_line1": "1 66541U 25265AB  25344.58336806 -.00133171  00000+0 -22989-2 0  9998",
        "tle_line2": "2 66541  43.0005  66.5139 0001593 274.5667  98.7084 15.50627441  4646"
      },
      "geometry": {
        "type": "Point",
        "coordinates": [
          72.96178428729908,
          7.688836105525331
        ]
      }
    }
  ]
}